{"type": "FeatureCollection", "features": [ {"type": "Feature", "properties": {"norad_id": 39155, "name": "COSMOS 2485 (747)", "group": "glo-ops", "lat": -1.63970960929635, "lon": -99.1424415067264, "alt_km": 19088.017519128654, "timestamp": "2025-12-05T19:30:25.826545+00:00", "meta": {"OBJECT_NAME": "COSMOS 2485 (747)", "OBJECT_ID": "2013-019A", "EPOCH": "2025-12-05T02:32:45.729312", "MEAN_MOTION": 2.13102875, "ECCENTRICITY": 0.00246247, "INCLINATION": 65.3094, "RA_OF_ASC_NODE": 80.124, "ARG_OF_PERICENTER": 229.2984, "MEAN_ANOMALY": 130.4888, "EPHEMERIS_TYPE": 0, "CLASSIFICATION_TYPE": "U", "NORAD_CAT_ID": 39155, "ELEMENT_SET_NO": 999, "REV_AT_EPOCH": 9814, "BSTAR": 0, "MEAN_MOTION_DOT": -2.1e-07, "MEAN_MOTION_DDOT": 0}, "tle": {"line1": "1 39155U 13019A   25339.10608483 -.00000021  00000+0  00000+0 0  9991", "line2": "2 39155  65.3094  80.1240 0024624 229.2984 130.4888  2.13102875 98144"}}, "geometry": {"type": "Point", "coordinates": [-99.1424415067264, -1.63970960929635]}}, {"type": "Feature", "properties": {"norad_id": 39620, "name": "COSMOS 2492 (754)", "group": "glo-ops", "lat": -30.290901363409, "lon": 156.00791028648388, "alt_km": 19138.43639312403, "timestamp": "2025-12-05T19:30:25.826556+00:00", "meta": {"OBJECT_NAME": "COSMOS 2492 (754)", "OBJECT_ID": "2014-012A", "EPOCH": "2025-12-02T17:14:30.403680", "MEAN_MOTION": 2.13103072, "ECCENTRICITY": 0.00141646, "INCLINATION": 65.4134, "RA_OF_ASC_NODE": 320.6107, "ARG_OF_PERICENTER": 311.0276, "MEAN_ANOMALY": 48.8557, "EPHEMERIS_TYPE": 0, "CLASSIFICATION_TYPE": "U", "NORAD_CAT_ID": 39620, "ELEMENT_SET_NO": 999, "REV_AT_EPOCH": 9105, "BSTAR": 0, "MEAN_MOTION_DOT": -3.6e-07, "MEAN_MOTION_DDOT": 0}, "tle": {"line1": "1 39620U 14012A   25336.71840745 -.00000036  00000+0  00000+0 0  9991", "line2": "2 39620  65.4134 320.6107 0014164 311.0276  48.8557  2.13103072 91051"}}, "geometry": {"type": "Point", "coordinates": [156.00791028648388, -30.290901363409]}}, {"type": "Feature", "properties": {"norad_id": 40001, "name": "COSMOS 2500 (755)", "group": "glo-ops", "lat": 64.0419067808639, "lon": 30.87732957905339, "alt_km": 19138.239327750907, "timestamp": "2025-12-05T19:30:25.826567+00:00", "meta": {"OBJECT_NAME": "COSMOS 2500 (755)", "OBJECT_ID": "2014-032A", "EPOCH": "2025-12-04T07:09:49.504896", "MEAN_MOTION": 2.13106037, "ECCENTRICITY": 0.0008267, "INCLINATION": 65.3482, "RA_OF_ASC_NODE": 320.3199, "ARG_OF_PERICENTER": 219.122, "MEAN_ANOMALY": 140.8171, "EPHEMERIS_TYPE": 0, "CLASSIFICATION_TYPE": "U", "NORAD_CAT_ID": 40001, "ELEMENT_SET_NO": 999, "REV_AT_EPOCH": 8930, "BSTAR": 0, "MEAN_MOTION_DOT": -4.5e-07, "MEAN_MOTION_DDOT": 0}, "tle": {"line1": "1 40001U 14032A   25338.29848964 -.00000045  00000+0  00000+0 0  9994", "line2": "2 40001  65.3482 320.3199 0008267 219.1220 140.8171  2.13106037 89307"}}, "geometry": {"type": "Point", "coordinates": [30.87732957905339, 64.0419067808639]}}, {"type": "Feature", "properties": {"norad_id": 40315, "name": "COSMOS 2501 (702K)", "group": "glo-ops", "lat": -52.682603953198864, "lon": 57.70463615570821, "alt_km": 19095.216155548947, "timestamp": "2025-12-05T19:30:25.826578+00:00", "meta": {"OBJECT_NAME": "COSMOS 2501 (702K)", "OBJECT_ID": "2014-075A", "EPOCH": "2025-12-04T02:08:01.213152", "MEAN_MOTION": 2.13101298, "ECCENTRICITY": 0.0020149, "INCLINATION": 63.6138, "RA_OF_ASC_NODE": 197.1248, "ARG_OF_PERICENTER": 204.6361, "MEAN_ANOMALY": 155.363, "EPHEMERIS_TYPE": 0, "CLASSIFICATION_TYPE": "U", "NORAD_CAT_ID": 40315, "ELEMENT_SET_NO": 999, "REV_AT_EPOCH": 8569, "BSTAR": 0, "MEAN_MOTION_DOT": 1.03e-06, "MEAN_MOTION_DDOT": 0}, "tle": {"line1": "1 40315U 14075A   25338.08890293  .00000103  00000+0  00000+0 0  9992", "line2": "2 40315  63.6138 197.1248 0020149 204.6361 155.3630  2.13101298 85690"}}, "geometry": {"type": "Point", "coordinates": [57.70463615570821, -52.682603953198864]}}, {"type": "Feature", "properties": {"norad_id": 41330, "name": "COSMOS 2514 (751)", "group": "glo-ops", "lat": -61.133339896328195, "lon": -163.11489800572778, "alt_km": 19110.370203529397, "timestamp": "2025-12-05T19:30:25.826589+00:00", "meta": {"OBJECT_NAME": "COSMOS 2514 (751)", "OBJECT_ID": "2016-008A", "EPOCH": "2025-12-05T00:16:21.718272", "MEAN_MOTION": 2.13102448, "ECCENTRICITY": 0.00123991, "INCLINATION": 65.1382, "RA_OF_ASC_NODE": 319.6687, "ARG_OF_PERICENTER": 219.9384, "MEAN_ANOMALY": 139.9663, "EPHEMERIS_TYPE": 0, "CLASSIFICATION_TYPE": "U", "NORAD_CAT_ID": 41330, "ELEMENT_SET_NO": 999, "REV_AT_EPOCH": 7648, "BSTAR": 0, "MEAN_MOTION_DOT": -4.7e-07, "MEAN_MOTION_DDOT": 0}, "tle": {"line1": "1 41330U 16008A   25339.01136248 -.00000047  00000+0  00000+0 0  9993", "line2": "2 41330  65.1382 319.6687 0012399 219.9384 139.9663  2.13102448 76485"}}, "geometry": {"type": "Point", "coordinates": [-163.11489800572778, -61.133339896328195]}}, {"type": "Feature", "properties": {"norad_id": 42939, "name": "COSMOS 2522 (752)", "group": "glo-ops", "lat": 16.814315873827056, "lon": -153.07921602355236, "alt_km": 19143.0316161686, "timestamp": "2025-12-05T19:30:25.826600+00:00", "meta": {"OBJECT_NAME": "COSMOS 2522 (752)", "OBJECT_ID": "2017-055A", "EPOCH": "2025-12-02T23:20:47.282208", "MEAN_MOTION": 2.1310185, "ECCENTRICITY": 0.00065327, "INCLINATION": 64.0758, "RA_OF_ASC_NODE": 198.5618, "ARG_OF_PERICENTER": 226.0683, "MEAN_ANOMALY": 133.9743, "EPHEMERIS_TYPE": 0, "CLASSIFICATION_TYPE": "U", "NORAD_CAT_ID": 42939, "ELEMENT_SET_NO": 999, "REV_AT_EPOCH": 6379, "BSTAR": 0, "MEAN_MOTION_DOT": 1.07e-06, "MEAN_MOTION_DDOT": 0}, "tle": {"line1": "1 42939U 17055A   25336.97276947  .00000107  00000+0  00000+0 0  9991", "line2": "2 42939  64.0758 198.5618 0006532 226.0683 133.9743  2.13101850 63796"}}, "geometry": {"type": "Point", "coordinates": [-153.07921602355236, 16.814315873827056]}}, {"type": "Feature", "properties": {"norad_id": 43508, "name": "COSMOS 2527 (756)", "group": "glo-ops", "lat": 43.24906058692072, "lon": 105.76257125846007, "alt_km": 19147.047641761783, "timestamp": "2025-12-05T19:30:25.826611+00:00", "meta": {"OBJECT_NAME": "COSMOS 2527 (756)", "OBJECT_ID": "2018-053A", "EPOCH": "2025-12-04T19:27:07.624224", "MEAN_MOTION": 2.1310203, "ECCENTRICITY": 0.00086941, "INCLINATION": 65.4682, "RA_OF_ASC_NODE": 80.3968, "ARG_OF_PERICENTER": 224.6174, "MEAN_ANOMALY": 135.3122, "EPHEMERIS_TYPE": 0, "CLASSIFICATION_TYPE": "U", "NORAD_CAT_ID": 43508, "ELEMENT_SET_NO": 999, "REV_AT_EPOCH": 5813, "BSTAR": 0, "MEAN_MOTION_DOT": -2.1e-07, "MEAN_MOTION_DDOT": 0}, "tle": {"line1": "1 43508U 18053A   25338.81050491 -.00000021  00000+0  00000+0 0  9998", "line2": "2 43508  65.4682  80.3968 0008694 224.6174 135.3122  2.13102030 58136"}}, "geometry": {"type": "Point", "coordinates": [105.76257125846007, 43.24906058692072]}}, {"type": "Feature", "properties": {"norad_id": 43687, "name": "COSMOS 2529 (757)", "group": "glo-ops", "lat": -23.147848605123073, "lon": -172.7589162736059, "alt_km": 19129.9225426422, "timestamp": "2025-12-05T19:30:25.826622+00:00", "meta": {"OBJECT_NAME": "COSMOS 2529 (757)", "OBJECT_ID": "2018-086A", "EPOCH": "2025-12-03T00:44:36.468960", "MEAN_MOTION": 2.13101888, "ECCENTRICITY": 0.00072932, "INCLINATION": 64.2917, "RA_OF_ASC_NODE": 199.2166, "ARG_OF_PERICENTER": 254.4618, "MEAN_ANOMALY": 105.5545, "EPHEMERIS_TYPE": 0, "CLASSIFICATION_TYPE": "U", "NORAD_CAT_ID": 43687, "ELEMENT_SET_NO": 999, "REV_AT_EPOCH": 5510, "BSTAR": 0, "MEAN_MOTION_DOT": 1.06e-06, "MEAN_MOTION_DDOT": 0}, "tle": {"line1": "1 43687U 18086A   25337.03097765  .00000106  00000+0  00000+0 0  9993", "line2": "2 43687  64.2917 199.2166 0007293 254.4618 105.5545  2.13101888 55102"}}, "geometry": {"type": "Point", "coordinates": [-172.7589162736059, -23.147848605123073]}}, {"type": "Feature", "properties": {"norad_id": 44299, "name": "COSMOS 2534 (758)", "group": "glo-ops", "lat": 58.75180245839978, "lon": -33.178420829708195, "alt_km": 19146.416486161885, "timestamp": "2025-12-05T19:30:25.826651+00:00", "meta": {"OBJECT_NAME": "COSMOS 2534 (758)", "OBJECT_ID": "2019-030A", "EPOCH": "2025-12-04T10:51:29.869920", "MEAN_MOTION": 2.1310196, "ECCENTRICITY": 0.0009061, "INCLINATION": 64.3652, "RA_OF_ASC_NODE": 199.1723, "ARG_OF_PERICENTER": 283.5363, "MEAN_ANOMALY": 221.3863, "EPHEMERIS_TYPE": 0, "CLASSIFICATION_TYPE": "U", "NORAD_CAT_ID": 44299, "ELEMENT_SET_NO": 999, "REV_AT_EPOCH": 5077, "BSTAR": 0, "MEAN_MOTION_DOT": 9.8e-07, "MEAN_MOTION_DDOT": 0}, "tle": {"line1": "1 44299U 19030A   25338.45242905  .00000098  00000+0  00000+0 0  9998", "line2": "2 44299  64.3652 199.1723 0009061 283.5363 221.3863  2.13101960 50771"}}, "geometry": {"type": "Point", "coordinates": [-33.178420829708195, 58.75180245839978]}}, {"type": "Feature", "properties": {"norad_id": 44850, "name": "COSMOS 2544 (759)", "group": "glo-ops", "lat": 65.44758777981028, "lon": 173.28152149887046, "alt_km": 19155.459725817054, "timestamp": "2025-12-05T19:30:25.826663+00:00", "meta": {"OBJECT_NAME": "COSMOS 2544 (759)", "OBJECT_ID": "2019-088A", "EPOCH": "2025-12-05T05:23:01.061376", "MEAN_MOTION": 2.13101771, "ECCENTRICITY": 0.00137772, "INCLINATION": 65.456, "RA_OF_ASC_NODE": 80.2099, "ARG_OF_PERICENTER": 249.1354, "MEAN_ANOMALY": 110.7187, "EPHEMERIS_TYPE": 0, "CLASSIFICATION_TYPE": "U", "NORAD_CAT_ID": 44850, "ELEMENT_SET_NO": 999, "REV_AT_EPOCH": 4658, "BSTAR": 0, "MEAN_MOTION_DOT": -2e-07, "MEAN_MOTION_DDOT": 0}, "tle": {"line1": "1 44850U 19088A   25339.22431784 -.00000020  00000+0  00000+0 0  9991", "line2": "2 44850  65.4560  80.2099 0013777 249.1354 110.7187  2.13101771 46581"}}, "geometry": {"type": "Point", "coordinates": [173.28152149887046, 65.44758777981028]}}]}